[{"OBJECT_NAME":"HST","OBJECT_ID":"1990-037B","EPOCH":"2022-08-19T09:39:52.081632","MEAN_MOTION":15.10775033,"ECCENTRICITY":0.0002542,"INCLINATION":28.4699,"RA_OF_ASC_NODE":111.6248,"ARG_OF_PERICENTER":357.5324,"MEAN_ANOMALY":169.5372,"EPHEMERIS_TYPE":0,"CLASSIFICATION_TYPE":"U","NORAD_CAT_ID":20580,"ELEMENT_SET_NO":999,"REV_AT_EPOCH":57574,"BSTAR":0.00011708,"MEAN_MOTION_DOT":2.177e-5,"MEAN_MOTION_DDOT":0},{"OBJECT_NAME":"POLAR","OBJECT_ID":"1996-013A","EPOCH":"2022-08-18T09:44:46.277088","MEAN_MOTION":1.29847361,"ECCENTRICITY":0.5797442,"INCLINATION":78.7825,"RA_OF_ASC_NODE":241.0001,"ARG_OF_PERICENTER":256.7614,"MEAN_ANOMALY":35.8183,"EPHEMERIS_TYPE":0,"CLASSIFICATION_TYPE":"U","NORAD_CAT_ID":23802,"ELEMENT_SET_NO":999,"REV_AT_EPOCH":12669,"BSTAR":0,"MEAN_MOTION_DOT":2.74e-6,"MEAN_MOTION_DDOT":0},{"OBJECT_NAME":"SWAS","OBJECT_ID":"1998-071A","EPOCH":"2022-08-19T06:38:05.299872","MEAN_MOTION":14.94922215,"ECCENTRICITY":0.0010191,"INCLINATION":69.8981,"RA_OF_ASC_NODE":187.8713,"ARG_OF_PERICENTER":238.4671,"MEAN_ANOMALY":121.5491,"EPHEMERIS_TYPE":0,"CLASSIFICATION_TYPE":"U","NORAD_CAT_ID":25560,"ELEMENT_SET_NO":999,"REV_AT_EPOCH":28741,"BSTAR":0.0001248,"MEAN_MOTION_DOT":1.274e-5,"MEAN_MOTION_DDOT":0},{"OBJECT_NAME":"CXO","OBJECT_ID":"1999-040B","EPOCH":"2022-08-22T03:55:12.458496","MEAN_MOTION":0.37807172,"ECCENTRICITY":0.8887387,"INCLINATION":43.5429,"RA_OF_ASC_NODE":229.7698,"ARG_OF_PERICENTER":237.4748,"MEAN_ANOMALY":1.1172,"EPHEMERIS_TYPE":0,"CLASSIFICATION_TYPE":"U","NORAD_CAT_ID":25867,"ELEMENT_SET_NO":999,"REV_AT_EPOCH":1204,"BSTAR":0,"MEAN_MOTION_DOT":6.28e-6,"MEAN_MOTION_DDOT":0},{"OBJECT_NAME":"XMM-NEWTON","OBJECT_ID":"1999-066A","EPOCH":"2022-08-20T07:32:32.568576","MEAN_MOTION":0.50131766,"ECCENTRICITY":0.595011,"INCLINATION":69.9456,"RA_OF_ASC_NODE":303.5561,"ARG_OF_PERICENTER":86.0702,"MEAN_ANOMALY":0.1303,"EPHEMERIS_TYPE":0,"CLASSIFICATION_TYPE":"U","NORAD_CAT_ID":25989,"ELEMENT_SET_NO":999,"REV_AT_EPOCH":1599,"BSTAR":0,"MEAN_MOTION_DOT":1.17e-6,"MEAN_MOTION_DDOT":0},{"OBJECT_NAME":"TERRA","OBJECT_ID":"1999-068A","EPOCH":"2022-08-19T12:34:12.691200","MEAN_MOTION":14.57139085,"ECCENTRICITY":0.0001614,"INCLINATION":98.1333,"RA_OF_ASC_NODE":301.9865,"ARG_OF_PERICENTER":88.3498,"MEAN_ANOMALY":35.2556,"EPHEMERIS_TYPE":0,"CLASSIFICATION_TYPE":"U","NORAD_CAT_ID":25994,"ELEMENT_SET_NO":999,"REV_AT_EPOCH":20568,"BSTAR":6.1715e-5,"MEAN_MOTION_DOT":2.34e-6,"MEAN_MOTION_DDOT":0},{"OBJECT_NAME":"CLUSTER II-FM7 (SAMBA)","OBJECT_ID":"2000-041A","EPOCH":"2022-08-15T16:57:59.053536","MEAN_MOTION":0.4419847,"ECCENTRICITY":0.5782329,"INCLINATION":134.473,"RA_OF_ASC_NODE":348.3583,"ARG_OF_PERICENTER":200.4308,"MEAN_ANOMALY":359.5927,"EPHEMERIS_TYPE":0,"CLASSIFICATION_TYPE":"U","NORAD_CAT_ID":26410,"ELEMENT_SET_NO":999,"REV_AT_EPOCH":1408,"BSTAR":0,"MEAN_MOTION_DOT":5.4e-7,"MEAN_MOTION_DDOT":0},{"OBJECT_NAME":"CLUSTER II-FM6 (SALSA)","OBJECT_ID":"2000-041B","EPOCH":"2022-08-20T04:11:43.285056","MEAN_MOTION":0.44222107,"ECCENTRICITY":0.7456273,"INCLINATION":137.0631,"RA_OF_ASC_NODE":352.4587,"ARG_OF_PERICENTER":205.4932,"MEAN_ANOMALY":359.6134,"EPHEMERIS_TYPE":0,"CLASSIFICATION_TYPE":"U","NORAD_CAT_ID":26411,"ELEMENT_SET_NO":999,"REV_AT_EPOCH":1414,"BSTAR":0,"MEAN_MOTION_DOT":1.53e-6,"MEAN_MOTION_DDOT":0},{"OBJECT_NAME":"CLUSTER II-FM5 (RUMBA)","OBJECT_ID":"2000-045A","EPOCH":"2022-08-20T04:18:55.070784","MEAN_MOTION":0.4422155,"ECCENTRICITY":0.6964177,"INCLINATION":140.5617,"RA_OF_ASC_NODE":352.7531,"ARG_OF_PERICENTER":206.3685,"MEAN_ANOMALY":359.6545,"EPHEMERIS_TYPE":0,"CLASSIFICATION_TYPE":"U","NORAD_CAT_ID":26463,"ELEMENT_SET_NO":999,"REV_AT_EPOCH":1403,"BSTAR":0,"MEAN_MOTION_DOT":2.22e-6,"MEAN_MOTION_DDOT":0},{"OBJECT_NAME":"CLUSTER II-FM8 (TANGO)","OBJECT_ID":"2000-045B","EPOCH":"2022-08-20T04:28:02.526240","MEAN_MOTION":0.44220183,"ECCENTRICITY":0.5788294,"INCLINATION":134.4844,"RA_OF_ASC_NODE":348.4003,"ARG_OF_PERICENTER":200.5045,"MEAN_ANOMALY":359.6318,"EPHEMERIS_TYPE":0,"CLASSIFICATION_TYPE":"U","NORAD_CAT_ID":26464,"ELEMENT_SET_NO":999,"REV_AT_EPOCH":1410,"BSTAR":0,"MEAN_MOTION_DOT":-6.8e-7,"MEAN_MOTION_DDOT":0},{"OBJECT_NAME":"ODIN","OBJECT_ID":"2001-007A","EPOCH":"2022-08-19T11:11:52.016928","MEAN_MOTION":15.10393193,"ECCENTRICITY":0.0012363,"INCLINATION":97.5201,"RA_OF_ASC_NODE":245.0693,"ARG_OF_PERICENTER":74.5834,"MEAN_ANOMALY":285.676,"EPHEMERIS_TYPE":0,"CLASSIFICATION_TYPE":"U","NORAD_CAT_ID":26702,"ELEMENT_SET_NO":999,"REV_AT_EPOCH":17578,"BSTAR":0.00018574,"MEAN_MOTION_DOT":2.992e-5,"MEAN_MOTION_DDOT":0},{"OBJECT_NAME":"TIMED","OBJECT_ID":"2001-055B","EPOCH":"2022-08-19T06:38:11.818752","MEAN_MOTION":14.88755035,"ECCENTRICITY":0.0001349,"INCLINATION":74.0731,"RA_OF_ASC_NODE":154.4811,"ARG_OF_PERICENTER":304.3847,"MEAN_ANOMALY":55.7206,"EPHEMERIS_TYPE":0,"CLASSIFICATION_TYPE":"U","NORAD_CAT_ID":26998,"ELEMENT_SET_NO":999,"REV_AT_EPOCH":12235,"BSTAR":8.5124e-5,"MEAN_MOTION_DOT":7.59e-6,"MEAN_MOTION_DDOT":0},{"OBJECT_NAME":"RHESSI","OBJECT_ID":"2002-004A","EPOCH":"2022-08-19T11:16:54.719328","MEAN_MOTION":15.46197844,"ECCENTRICITY":0.0006518,"INCLINATION":38.0325,"RA_OF_ASC_NODE":328.7046,"ARG_OF_PERICENTER":26.535,"MEAN_ANOMALY":333.5758,"EPHEMERIS_TYPE":0,"CLASSIFICATION_TYPE":"U","NORAD_CAT_ID":27370,"ELEMENT_SET_NO":999,"REV_AT_EPOCH":13636,"BSTAR":0.0004605,"MEAN_MOTION_DOT":0.00023168,"MEAN_MOTION_DDOT":0},{"OBJECT_NAME":"INTEGRAL","OBJECT_ID":"2002-048A","EPOCH":"2022-08-19T02:44:50.051616","MEAN_MOTION":0.37582911,"ECCENTRICITY":0.8891151,"INCLINATION":76.9824,"RA_OF_ASC_NODE":55.5721,"ARG_OF_PERICENTER":297.6639,"MEAN_ANOMALY":349.4003,"EPHEMERIS_TYPE":0,"CLASSIFICATION_TYPE":"U","NORAD_CAT_ID":27540,"ELEMENT_SET_NO":999,"REV_AT_EPOCH":2137,"BSTAR":0,"MEAN_MOTION_DOT":-3.8e-6,"MEAN_MOTION_DDOT":0},{"OBJECT_NAME":"CORIOLIS","OBJECT_ID":"2003-001A","EPOCH":"2022-08-19T11:56:16.437408","MEAN_MOTION":14.1914474,"ECCENTRICITY":0.0013025,"INCLINATION":98.7184,"RA_OF_ASC_NODE":239.4661,"ARG_OF_PERICENTER":277.0664,"MEAN_ANOMALY":197.9842,"EPHEMERIS_TYPE":0,"CLASSIFICATION_TYPE":"U","NORAD_CAT_ID":27640,"ELEMENT_SET_NO":999,"REV_AT_EPOCH":1592,"BSTAR":4.4832e-5,"MEAN_MOTION_DOT":5.0e-7,"MEAN_MOTION_DDOT":0},{"OBJECT_NAME":"SORCE","OBJECT_ID":"2003-004A","EPOCH":"2022-08-19T11:18:41.673888","MEAN_MOTION":14.90043783,"ECCENTRICITY":0.0023487,"INCLINATION":39.994,"RA_OF_ASC_NODE":225.5847,"ARG_OF_PERICENTER":198.5646,"MEAN_ANOMALY":161.4288,"EPHEMERIS_TYPE":0,"CLASSIFICATION_TYPE":"U","NORAD_CAT_ID":27651,"ELEMENT_SET_NO":999,"REV_AT_EPOCH":6247,"BSTAR":0.00010896,"MEAN_MOTION_DOT":9.37e-6,"MEAN_MOTION_DDOT":0},{"OBJECT_NAME":"MOST","OBJECT_ID":"2003-031D","EPOCH":"2022-08-19T10:58:49.765152","MEAN_MOTION":14.20695709,"ECCENTRICITY":0.0009433,"INCLINATION":98.7086,"RA_OF_ASC_NODE":238.1363,"ARG_OF_PERICENTER":332.5244,"MEAN_ANOMALY":27.5433,"EPHEMERIS_TYPE":0,"CLASSIFICATION_TYPE":"U","NORAD_CAT_ID":27843,"ELEMENT_SET_NO":999,"REV_AT_EPOCH":99219,"BSTAR":3.1488e-5,"MEAN_MOTION_DOT":2.4e-7,"MEAN_MOTION_DDOT":0}]