HST                     
1 20580U 90037B   22231.40268613  .00002177  00000+0  11708-3 0  9990
2 20580  28.4699 111.6248 0002542 357.5324 169.5372 15.10775033575743
POLAR                   
1 23802U 96013A   22230.40609117  .00000274  00000+0  00000+0 0  9992
2 23802  78.7825 241.0001 5797442 256.7614  35.8183  1.29847361126694
SWAS                    
1 25560U 98071A   22231.27645023  .00001274  00000+0  12480-3 0  9993
2 25560  69.8981 187.8713 0010191 238.4671 121.5491 14.94922215287413
CXO                     
1 25867U 99040B   22234.16333864  .00000628  00000+0  00000+0 0  9991
2 25867  43.5429 229.7698 8887387 237.4748   1.1172  0.37807172 12048
XMM-NEWTON              
1 25989U 99066A   22232.31426584  .00000117  00000+0  00000+0 0  9994
2 25989  69.9456 303.5561 5950110  86.0702   0.1303  0.50131766 15991
TERRA                   
1 25994U 99068A   22231.52375800  .00000234  00000+0  61715-4 0  9993
2 25994  98.1333 301.9865 0001614  88.3498  35.2556 14.57139085205682
CLUSTER II-FM7 (SAMBA)  
1 26410U 00041A   22227.70693349  .00000054  00000+0  00000+0 0  9991
2 26410 134.4730 348.3583 5782329 200.4308 359.5927  0.44198470 14084
CLUSTER II-FM6 (SALSA)  
1 26411U 00041B   22232.17480654  .00000153  00000+0  00000+0 0  9992
2 26411 137.0631 352.4587 7456273 205.4932 359.6134  0.44222107 14143
CLUSTER II-FM5 (RUMBA)  
1 26463U 00045A   22232.17980406  .00000222  00000+0  00000+0 0  9990
2 26463 140.5617 352.7531 6964177 206.3685 359.6545  0.44221550 14031
CLUSTER II-FM8 (TANGO)  
1 26464U 00045B   22232.18614035 -.00000068  00000+0  00000+0 0  9993
2 26464 134.4844 348.4003 5788294 200.5045 359.6318  0.44220183 14108
ODIN                    
1 26702U 01007A   22231.46657427  .00002992  00000+0  18574-3 0  9995
2 26702  97.5201 245.0693 0012363  74.5834 285.6760 15.10393193175785
TIMED                   
1 26998U 01055B   22231.27652568  .00000759  00000+0  85124-4 0  9990
2 26998  74.0731 154.4811 0001349 304.3847  55.7206 14.88755035122352
RHESSI                  
1 27370U 02004A   22231.47007777  .00023168  00000+0  46050-3 0  9991
2 27370  38.0325 328.7046 0006518  26.5350 333.5758 15.46197844136365
INTEGRAL                
1 27540U 02048A   22231.11446819 -.00000380  00000+0  00000+0 0  9996
2 27540  76.9824  55.5721 8891151 297.6639 349.4003  0.37582911 21378
CORIOLIS                
1 27640U 03001A   22231.49741247  .00000050  00000+0  44832-4 0  9990
2 27640  98.7184 239.4661 0013025 277.0664 197.9842 14.19144740 15924
SORCE                   
1 27651U 03004A   22231.47131567  .00000937  00000+0  10896-3 0  9997
2 27651  39.9940 225.5847 0023487 198.5646 161.4288 14.90043783 62471
MOST                    
1 27843U 03031D   22231.45752043  .00000024  00000+0  31488-4 0  9994
2 27843  98.7086 238.1363 0009433 332.5244  27.5433 14.20695709992199
